SL-12 R/B(2)            
1 17125U 86090D   26087.03446806 -.00000382  00000+0  00000+0 0  9995
2 17125  10.4672 323.2493 0007678 181.5526 178.3847  1.00298096144057
GOES 7                  
1 17561U 87022A   26086.37139314  .00000049  00000+0  00000+0 0  9993
2 17561  13.0005 338.2141 0004074  23.9266 152.2943  0.99904305126145
AGILA 1 (PALAPA B2P)    
1 17706U 87029A   26087.70573405 -.00000207  00000+0  00000+0 0  9999
2 17706  14.4033 348.7872 0003182  20.4620 163.7864  0.99902943 41729
SL-12 R/B(2)            
1 17872U 76092F   26087.84596469 -.00000153  00000+0  00000+0 0  9991
2 17872   3.6694 271.3248 0015209 193.2845 106.5327  1.00222329118118
SL-12 R/B(2)            
1 17873U 79035E   26087.76492765  .00000120  00000+0  00000+0 0  9990
2 17873   5.4225 282.8749 0025446 252.3251 318.0740  1.00156002184367
SL-12 R/B(2)            
1 17874U 84016F   26087.69810736  .00000046  00000+0  00000+0 0  9997
2 17874   8.7293 311.4090 0033924 228.4934 312.0462  1.00302852122047
COSMOS 1888             
1 18384U 87084A   26087.68628593 -.00000304  00000+0  00000+0 0  9997
2 18384  10.9104 326.5963 0001830 302.5023 261.9537  1.00162087140881
SL-12 R/B(2)            
1 18387U 87084D   26087.43724029 -.00000042  00000+0  00000+0 0  9993
2 18387  11.0637 327.1961 0028724 251.0661 302.5509  1.00060594147966
COSMOS 1894             
1 18443U 87091A   26086.96997948 -.00000201  00000+0  00000+0 0  9990
2 18443  10.8702 326.0673 0005192  17.8321 169.1318  1.00262162120008
SL-12 R/B(2)            
1 18446U 87091D   26087.50172593 -.00000299  00000+0  00000+0 0  9992
2 18446  10.9033 326.2332 0022038 266.4834 276.9063  1.00227247129190
COSMOS 1897             
1 18575U 87096A   26087.70218072 -.00000136  00000+0  00000+0 0  9995
2 18575  11.1364 327.4231 0005815 129.9803  56.5258  1.00323878140386
SL-12 R/B(2)            
1 18578U 87096D   26087.03493193 -.00000309  00000+0  00000+0 0  9995
2 18578  10.9304 326.6941 0021851 249.1904 288.3438  1.00567538137210
RADUGA 21               
1 18631U 87100A   26087.66474056 -.00000081  00000+0  00000+0 0  9994
2 18631  11.4216 325.8332 0001341 315.9160  29.2502  1.00360795140271
STTW-2                  
1 18922U 88014A   26087.77272767 -.00000094  00000+0  00000+0 0  9993
2 18922  13.3283 340.2683 0003371 178.0179  17.4639  1.00303834139305
SPACENET 3R             
1 18951U 88018A   26084.97638949 -.00000186  00000+0  00000+0 0  9998
2 18951  14.6851   0.3171 0005341 293.2246 234.4347  0.99666909123786
SL-12 R/B(2)            
1 19076U 88034D   26087.73199419  .00000059  00000+0  00000+0 0  9994
2 19076  11.3773 328.1045 0021998 189.4675 157.4615  1.00089663138294
INSAT-1C                
1 19330U 88063A   26087.70426072 -.00000214  00000+0  00000+0 0  9998
2 19330  11.4311 328.3106 0005153 122.8999  73.7462  1.00235685119534
