[{"OBJECT_NAME":"SL-12 R/B(2)","OBJECT_ID":"1986-090D","EPOCH":"2026-03-28T00:49:38.040384","MEAN_MOTION":1.00298096,"ECCENTRICITY":0.0007678,"INCLINATION":10.4672,"RA_OF_ASC_NODE":323.2493,"ARG_OF_PERICENTER":181.5526,"MEAN_ANOMALY":178.3847,"EPHEMERIS_TYPE":0,"CLASSIFICATION_TYPE":"U","NORAD_CAT_ID":17125,"ELEMENT_SET_NO":999,"REV_AT_EPOCH":14405,"BSTAR":0,"MEAN_MOTION_DOT":-3.82e-6,"MEAN_MOTION_DDOT":0},{"OBJECT_NAME":"GOES 7","OBJECT_ID":"1987-022A","EPOCH":"2026-03-27T08:54:48.367296","MEAN_MOTION":0.99904305,"ECCENTRICITY":0.0004074,"INCLINATION":13.0005,"RA_OF_ASC_NODE":338.2141,"ARG_OF_PERICENTER":23.9266,"MEAN_ANOMALY":152.2943,"EPHEMERIS_TYPE":0,"CLASSIFICATION_TYPE":"U","NORAD_CAT_ID":17561,"ELEMENT_SET_NO":999,"REV_AT_EPOCH":12614,"BSTAR":0,"MEAN_MOTION_DOT":4.9e-7,"MEAN_MOTION_DDOT":0},{"OBJECT_NAME":"AGILA 1 (PALAPA B2P)","OBJECT_ID":"1987-029A","EPOCH":"2026-03-28T16:56:15.421920","MEAN_MOTION":0.99902943,"ECCENTRICITY":0.0003182,"INCLINATION":14.4033,"RA_OF_ASC_NODE":348.7872,"ARG_OF_PERICENTER":20.462,"MEAN_ANOMALY":163.7864,"EPHEMERIS_TYPE":0,"CLASSIFICATION_TYPE":"U","NORAD_CAT_ID":17706,"ELEMENT_SET_NO":999,"REV_AT_EPOCH":4172,"BSTAR":0,"MEAN_MOTION_DOT":-2.07e-6,"MEAN_MOTION_DDOT":0},{"OBJECT_NAME":"SL-12 R/B(2)","OBJECT_ID":"1976-092F","EPOCH":"2026-03-28T20:18:11.349216","MEAN_MOTION":1.00222329,"ECCENTRICITY":0.0015209,"INCLINATION":3.6694,"RA_OF_ASC_NODE":271.3248,"ARG_OF_PERICENTER":193.2845,"MEAN_ANOMALY":106.5327,"EPHEMERIS_TYPE":0,"CLASSIFICATION_TYPE":"U","NORAD_CAT_ID":17872,"ELEMENT_SET_NO":999,"REV_AT_EPOCH":11811,"BSTAR":0,"MEAN_MOTION_DOT":-1.53e-6,"MEAN_MOTION_DDOT":0},{"OBJECT_NAME":"SL-12 R/B(2)","OBJECT_ID":"1979-035E","EPOCH":"2026-03-28T18:21:29.748960","MEAN_MOTION":1.00156002,"ECCENTRICITY":0.0025446,"INCLINATION":5.4225,"RA_OF_ASC_NODE":282.8749,"ARG_OF_PERICENTER":252.3251,"MEAN_ANOMALY":318.074,"EPHEMERIS_TYPE":0,"CLASSIFICATION_TYPE":"U","NORAD_CAT_ID":17873,"ELEMENT_SET_NO":999,"REV_AT_EPOCH":18436,"BSTAR":0,"MEAN_MOTION_DOT":1.2e-6,"MEAN_MOTION_DDOT":0},{"OBJECT_NAME":"SL-12 R/B(2)","OBJECT_ID":"1984-016F","EPOCH":"2026-03-28T16:45:16.475904","MEAN_MOTION":1.00302852,"ECCENTRICITY":0.0033924,"INCLINATION":8.7293,"RA_OF_ASC_NODE":311.409,"ARG_OF_PERICENTER":228.4934,"MEAN_ANOMALY":312.0462,"EPHEMERIS_TYPE":0,"CLASSIFICATION_TYPE":"U","NORAD_CAT_ID":17874,"ELEMENT_SET_NO":999,"REV_AT_EPOCH":12204,"BSTAR":0,"MEAN_MOTION_DOT":4.6e-7,"MEAN_MOTION_DDOT":0},{"OBJECT_NAME":"COSMOS 1888","OBJECT_ID":"1987-084A","EPOCH":"2026-03-28T16:28:15.104352","MEAN_MOTION":1.00162087,"ECCENTRICITY":0.000183,"INCLINATION":10.9104,"RA_OF_ASC_NODE":326.5963,"ARG_OF_PERICENTER":302.5023,"MEAN_ANOMALY":261.9537,"EPHEMERIS_TYPE":0,"CLASSIFICATION_TYPE":"U","NORAD_CAT_ID":18384,"ELEMENT_SET_NO":999,"REV_AT_EPOCH":14088,"BSTAR":0,"MEAN_MOTION_DOT":-3.04e-6,"MEAN_MOTION_DDOT":0},{"OBJECT_NAME":"SL-12 R/B(2)","OBJECT_ID":"1987-084D","EPOCH":"2026-03-28T10:29:37.561056","MEAN_MOTION":1.00060594,"ECCENTRICITY":0.00287248,"INCLINATION":11.0637,"RA_OF_ASC_NODE":327.1961,"ARG_OF_PERICENTER":251.0661,"MEAN_ANOMALY":302.5509,"EPHEMERIS_TYPE":0,"CLASSIFICATION_TYPE":"U","NORAD_CAT_ID":18387,"ELEMENT_SET_NO":999,"REV_AT_EPOCH":14796,"BSTAR":0,"MEAN_MOTION_DOT":-4.2e-7,"MEAN_MOTION_DDOT":0},{"OBJECT_NAME":"COSMOS 1894","OBJECT_ID":"1987-091A","EPOCH":"2026-03-27T23:16:46.227072","MEAN_MOTION":1.00262162,"ECCENTRICITY":0.00051929,"INCLINATION":10.8702,"RA_OF_ASC_NODE":326.0673,"ARG_OF_PERICENTER":17.8321,"MEAN_ANOMALY":169.1318,"EPHEMERIS_TYPE":0,"CLASSIFICATION_TYPE":"U","NORAD_CAT_ID":18443,"ELEMENT_SET_NO":999,"REV_AT_EPOCH":12000,"BSTAR":0,"MEAN_MOTION_DOT":-2.01e-6,"MEAN_MOTION_DDOT":0},{"OBJECT_NAME":"SL-12 R/B(2)","OBJECT_ID":"1987-091D","EPOCH":"2026-03-28T12:02:29.120352","MEAN_MOTION":1.00227247,"ECCENTRICITY":0.00220385,"INCLINATION":10.9033,"RA_OF_ASC_NODE":326.2332,"ARG_OF_PERICENTER":266.4834,"MEAN_ANOMALY":276.9063,"EPHEMERIS_TYPE":0,"CLASSIFICATION_TYPE":"U","NORAD_CAT_ID":18446,"ELEMENT_SET_NO":999,"REV_AT_EPOCH":12919,"BSTAR":0,"MEAN_MOTION_DOT":-2.99e-6,"MEAN_MOTION_DDOT":0},{"OBJECT_NAME":"COSMOS 1897","OBJECT_ID":"1987-096A","EPOCH":"2026-03-28T16:51:08.414208","MEAN_MOTION":1.00323878,"ECCENTRICITY":0.0005815,"INCLINATION":11.1364,"RA_OF_ASC_NODE":327.4231,"ARG_OF_PERICENTER":129.9803,"MEAN_ANOMALY":56.5258,"EPHEMERIS_TYPE":0,"CLASSIFICATION_TYPE":"U","NORAD_CAT_ID":18575,"ELEMENT_SET_NO":999,"REV_AT_EPOCH":14038,"BSTAR":0,"MEAN_MOTION_DOT":-1.36e-6,"MEAN_MOTION_DDOT":0},{"OBJECT_NAME":"SL-12 R/B(2)","OBJECT_ID":"1987-096D","EPOCH":"2026-03-28T00:50:18.118752","MEAN_MOTION":1.00567538,"ECCENTRICITY":0.00218513,"INCLINATION":10.9304,"RA_OF_ASC_NODE":326.6941,"ARG_OF_PERICENTER":249.1904,"MEAN_ANOMALY":288.3438,"EPHEMERIS_TYPE":0,"CLASSIFICATION_TYPE":"U","NORAD_CAT_ID":18578,"ELEMENT_SET_NO":999,"REV_AT_EPOCH":13721,"BSTAR":0,"MEAN_MOTION_DOT":-3.09e-6,"MEAN_MOTION_DDOT":0},{"OBJECT_NAME":"RADUGA 21","OBJECT_ID":"1987-100A","EPOCH":"2026-03-28T15:57:13.584384","MEAN_MOTION":1.00360795,"ECCENTRICITY":0.0001341,"INCLINATION":11.4216,"RA_OF_ASC_NODE":325.8332,"ARG_OF_PERICENTER":315.916,"MEAN_ANOMALY":29.2502,"EPHEMERIS_TYPE":0,"CLASSIFICATION_TYPE":"U","NORAD_CAT_ID":18631,"ELEMENT_SET_NO":999,"REV_AT_EPOCH":14027,"BSTAR":0,"MEAN_MOTION_DOT":-8.1e-7,"MEAN_MOTION_DDOT":0},{"OBJECT_NAME":"STTW-2","OBJECT_ID":"1988-014A","EPOCH":"2026-03-28T18:32:43.670688","MEAN_MOTION":1.00303834,"ECCENTRICITY":0.0003371,"INCLINATION":13.3283,"RA_OF_ASC_NODE":340.2683,"ARG_OF_PERICENTER":178.0179,"MEAN_ANOMALY":17.4639,"EPHEMERIS_TYPE":0,"CLASSIFICATION_TYPE":"U","NORAD_CAT_ID":18922,"ELEMENT_SET_NO":999,"REV_AT_EPOCH":13930,"BSTAR":0,"MEAN_MOTION_DOT":-9.4e-7,"MEAN_MOTION_DDOT":0},{"OBJECT_NAME":"SPACENET 3R","OBJECT_ID":"1988-018A","EPOCH":"2026-03-25T23:26:00.051936","MEAN_MOTION":0.99666909,"ECCENTRICITY":0.00053419,"INCLINATION":14.6851,"RA_OF_ASC_NODE":0.3171,"ARG_OF_PERICENTER":293.2246,"MEAN_ANOMALY":234.4347,"EPHEMERIS_TYPE":0,"CLASSIFICATION_TYPE":"U","NORAD_CAT_ID":18951,"ELEMENT_SET_NO":999,"REV_AT_EPOCH":12378,"BSTAR":0,"MEAN_MOTION_DOT":-1.86e-6,"MEAN_MOTION_DDOT":0},{"OBJECT_NAME":"SL-12 R/B(2)","OBJECT_ID":"1988-034D","EPOCH":"2026-03-28T17:34:04.298016","MEAN_MOTION":1.00089663,"ECCENTRICITY":0.0021998,"INCLINATION":11.3773,"RA_OF_ASC_NODE":328.1045,"ARG_OF_PERICENTER":189.4675,"MEAN_ANOMALY":157.4615,"EPHEMERIS_TYPE":0,"CLASSIFICATION_TYPE":"U","NORAD_CAT_ID":19076,"ELEMENT_SET_NO":999,"REV_AT_EPOCH":13829,"BSTAR":0,"MEAN_MOTION_DOT":5.9e-7,"MEAN_MOTION_DDOT":0},{"OBJECT_NAME":"INSAT-1C","OBJECT_ID":"1988-063A","EPOCH":"2026-03-28T16:54:08.126208","MEAN_MOTION":1.00235685,"ECCENTRICITY":0.0005153,"INCLINATION":11.4311,"RA_OF_ASC_NODE":328.3106,"ARG_OF_PERICENTER":122.8999,"MEAN_ANOMALY":73.7462,"EPHEMERIS_TYPE":0,"CLASSIFICATION_TYPE":"U","NORAD_CAT_ID":19330,"ELEMENT_SET_NO":999,"REV_AT_EPOCH":11953,"BSTAR":0,"MEAN_MOTION_DOT":-2.14e-6,"MEAN_MOTION_DDOT":0}]
